start=new Date('2023-05-19T00:00:00.000Z').valueOf();
sats=[{"REV_AT_EPOCH":"3784","MEAN_MOTION_DOT":"-0.00000344","MEAN_ANOMALY":"269.6379","OBJECT_ID":"2022-114G","RCS_SIZE":"LARGE","OBJECT_TYPE":"PAYLOAD","SEMIMAJOR_AXIS":"6917.900","OBJECT_NAME":"STARLINK-4757","ELEMENT_SET_NO":"999","INCLINATION":"53.2156","TIME_SYSTEM":"UTC","LAUNCH_DATE":"2022-09-19","APOAPSIS":"540.435","ARG_OF_PERICENTER":"90.4724","PERIOD":"95.438","RA_OF_ASC_NODE":"230.2712","SITE":"AFETR","EPHEMERIS_TYPE":"0","TLE_LINE2":"2 53824  53.2156 230.2712 0000968  90.4724 269.6379 15.08833556 37840","TLE_LINE1":"1 53824U 22114G   23138.65553546 -.00000344  00000-0 -35150-5 0  9990","MEAN_ELEMENT_THEORY":"SGP4","GP_ID":"232115922","MEAN_MOTION_DDOT":"0.0000000000000","CLASSIFICATION_TYPE":"U","CENTER_NAME":"EARTH","BSTAR":"-0.00000351500000","REF_FRAME":"TEME","PERIAPSIS":"539.095","DECAY_DATE":null,"ECCENTRICITY":"0.00009680","COUNTRY_CODE":"US","FILE":"3911388","MEAN_MOTION":"15.08833556","NORAD_CAT_ID":"53824","EPOCH":"2023-05-18T15:43:58.263744"},{"DECAY_DATE":null,"PERIAPSIS":"539.095","REF_FRAME":"TEME","BSTAR":"0.00010085000000","CENTER_NAME":"EARTH","MEAN_MOTION_DDOT":"0.0000000000000","CLASSIFICATION_TYPE":"U","EPOCH":"2023-05-18T15:49:16.080960","NORAD_CAT_ID":"53825","MEAN_MOTION":"15.08842947","FILE":"3911388","COUNTRY_CODE":"US","ECCENTRICITY":"0.00009270","ARG_OF_PERICENTER":"86.4318","APOAPSIS":"540.378","LAUNCH_DATE":"2022-09-19","GP_ID":"232116673","MEAN_ELEMENT_THEORY":"SGP4","TLE_LINE2":"2 53825  53.2145 230.2929 0000927  86.4318 273.6780 15.08842947 37933","TLE_LINE1":"1 53825U 22114H   23138.65921390  .00001318  00000-0  10085-3 0  9995","EPHEMERIS_TYPE":"0","SITE":"AFETR","RA_OF_ASC_NODE":"230.2929","PERIOD":"95.437","OBJECT_NAME":"STARLINK-4751","SEMIMAJOR_AXIS":"6917.871","OBJECT_TYPE":"PAYLOAD","RCS_SIZE":"LARGE","TIME_SYSTEM":"UTC","INCLINATION":"53.2145","ELEMENT_SET_NO":"999","REV_AT_EPOCH":"3793","MEAN_ANOMALY":"273.6780","OBJECT_ID":"2022-114H","MEAN_MOTION_DOT":"0.00001318"},{"MEAN_ANOMALY":"253.9688","OBJECT_ID":"2022-114J","MEAN_MOTION_DOT":"0.00003458","REV_AT_EPOCH":"3792","TIME_SYSTEM":"UTC","ELEMENT_SET_NO":"999","INCLINATION":"53.2174","RCS_SIZE":"LARGE","OBJECT_NAME":"STARLINK-4756","OBJECT_TYPE":"PAYLOAD","SEMIMAJOR_AXIS":"6917.920","SITE":"AFETR","EPHEMERIS_TYPE":"0","PERIOD":"95.438","RA_OF_ASC_NODE":"230.4772","MEAN_ELEMENT_THEORY":"SGP4","GP_ID":"232114921","TLE_LINE2":"2 53826  53.2174 230.4772 0000692 106.1381 253.9688 15.08827042 37929","TLE_LINE1":"1 53826U 22114J   23138.57455573  .00003458  00000-0  23534-3 0  9992","LAUNCH_DATE":"2022-09-19","APOAPSIS":"540.264","ARG_OF_PERICENTER":"106.1381","COUNTRY_CODE":"US","ECCENTRICITY":"0.00006920","NORAD_CAT_ID":"53826","EPOCH":"2023-05-18T13:47:21.615072","FILE":"3911388","MEAN_MOTION":"15.08827042","CENTER_NAME":"EARTH","BSTAR":"0.00023534000000","REF_FRAME":"TEME","CLASSIFICATION_TYPE":"U","MEAN_MOTION_DDOT":"0.0000000000000","PERIAPSIS":"539.306","DECAY_DATE":null},{"LAUNCH_DATE":"2022-09-19","APOAPSIS":"540.442","ARG_OF_PERICENTER":"91.2449","SITE":"AFETR","EPHEMERIS_TYPE":"0","PERIOD":"95.438","RA_OF_ASC_NODE":"230.8428","MEAN_ELEMENT_THEORY":"SGP4","GP_ID":"232085946","TLE_LINE2":"2 53827  53.2150 230.8428 0001010  91.2449 268.8659 15.08840811 37911","TLE_LINE1":"1 53827U 22114K   23138.51936656  .00000406  00000-0  43588-4 0  9995","CENTER_NAME":"EARTH","BSTAR":"0.00004358800000","REF_FRAME":"TEME","MEAN_MOTION_DDOT":"0.0000000000000","CLASSIFICATION_TYPE":"U","PERIAPSIS":"539.044","DECAY_DATE":null,"ECCENTRICITY":"0.00010100","COUNTRY_CODE":"US","NORAD_CAT_ID":"53827","EPOCH":"2023-05-18T12:27:53.270784","FILE":"3911221","MEAN_MOTION":"15.08840811","REV_AT_EPOCH":"3791","OBJECT_ID":"2022-114K","MEAN_ANOMALY":"268.8659","MEAN_MOTION_DOT":"0.00000406","RCS_SIZE":"LARGE","OBJECT_NAME":"STARLINK-4764","OBJECT_TYPE":"PAYLOAD","SEMIMAJOR_AXIS":"6917.878","TIME_SYSTEM":"UTC","ELEMENT_SET_NO":"999","INCLINATION":"53.2150"},{"REV_AT_EPOCH":"3793","OBJECT_ID":"2022-114L","MEAN_ANOMALY":"270.5040","MEAN_MOTION_DOT":"0.00000477","RCS_SIZE":"LARGE","OBJECT_NAME":"STARLINK-4760","OBJECT_TYPE":"PAYLOAD","SEMIMAJOR_AXIS":"6917.870","TIME_SYSTEM":"UTC","ELEMENT_SET_NO":"999","INCLINATION":"53.2166","LAUNCH_DATE":"2022-09-19","APOAPSIS":"540.344","ARG_OF_PERICENTER":"89.6053","SITE":"AFETR","EPHEMERIS_TYPE":"0","PERIOD":"95.437","RA_OF_ASC_NODE":"230.1564","MEAN_ELEMENT_THEORY":"SGP4","GP_ID":"232116423","TLE_LINE2":"2 53828  53.2166 230.1564 0000880  89.6053 270.5040 15.08843385 37934","TLE_LINE1":"1 53828U 22114L   23138.63710623  .00000477  00000-0  48044-4 0  9993","CENTER_NAME":"EARTH","BSTAR":"0.00004804400000","REF_FRAME":"TEME","CLASSIFICATION_TYPE":"U","MEAN_MOTION_DDOT":"0.0000000000000","PERIAPSIS":"539.126","DECAY_DATE":null,"COUNTRY_CODE":"US","ECCENTRICITY":"0.00008800","NORAD_CAT_ID":"53828","EPOCH":"2023-05-18T15:17:25.978272","FILE":"3911388","MEAN_MOTION":"15.08843385"},{"MEAN_ANOMALY":"268.3328","OBJECT_ID":"2022-114M","MEAN_MOTION_DOT":"0.00000383","REV_AT_EPOCH":"3791","TIME_SYSTEM":"UTC","INCLINATION":"53.2162","ELEMENT_SET_NO":"999","OBJECT_NAME":"STARLINK-4759","SEMIMAJOR_AXIS":"6917.889","OBJECT_TYPE":"PAYLOAD","RCS_SIZE":"LARGE","GP_ID":"232084944","MEAN_ELEMENT_THEORY":"SGP4","TLE_LINE2":"2 53829  53.2162 230.8203 0000889  91.7766 268.3328 15.08837048 37913","TLE_LINE1":"1 53829U 22114M   23138.51568307  .00000383  00000-0  42131-4 0  9998","EPHEMERIS_TYPE":"0","SITE":"AFETR","RA_OF_ASC_NODE":"230.8203","PERIOD":"95.438","ARG_OF_PERICENTER":"91.7766","APOAPSIS":"540.369","LAUNCH_DATE":"2022-09-19","EPOCH":"2023-05-18T12:22:35.017248","NORAD_CAT_ID":"53829","MEAN_MOTION":"15.08837048","FILE":"3911221","ECCENTRICITY":"0.00008890","COUNTRY_CODE":"US","DECAY_DATE":null,"PERIAPSIS":"539.139","BSTAR":"0.00004213100000","REF_FRAME":"TEME","CENTER_NAME":"EARTH","CLASSIFICATION_TYPE":"U","MEAN_MOTION_DDOT":"0.0000000000000"},{"OBJECT_NAME":"STARLINK-4761","OBJECT_TYPE":"PAYLOAD","SEMIMAJOR_AXIS":"6917.884","RCS_SIZE":"LARGE","TIME_SYSTEM":"UTC","ELEMENT_SET_NO":"999","INCLINATION":"53.2163","REV_AT_EPOCH":"3795","MEAN_ANOMALY":"263.5423","OBJECT_ID":"2022-114N","MEAN_MOTION_DOT":"0.00000345","PERIAPSIS":"539.013","DECAY_DATE":null,"CENTER_NAME":"EARTH","BSTAR":"0.00003978200000","REF_FRAME":"TEME","MEAN_MOTION_DDOT":"0.0000000000000","CLASSIFICATION_TYPE":"U","NORAD_CAT_ID":"53830","EPOCH":"2023-05-18T18:17:35.784672","FILE":"3911388","MEAN_MOTION":"15.08838767","ECCENTRICITY":"0.00010640","COUNTRY_CODE":"US","APOAPSIS":"540.485","ARG_OF_PERICENTER":"96.5690","LAUNCH_DATE":"2022-09-19","MEAN_ELEMENT_THEORY":"SGP4","GP_ID":"232115422","TLE_LINE2":"2 53830  53.2163 229.5149 0001064  96.5690 263.5423 15.08838767 37951","TLE_LINE1":"1 53830U 22114N   23138.76221973  .00000345  00000-0  39782-4 0  9998","SITE":"AFETR","EPHEMERIS_TYPE":"0","PERIOD":"95.438","RA_OF_ASC_NODE":"229.5149"},{"OBJECT_TYPE":"PAYLOAD","SEMIMAJOR_AXIS":"6917.903","OBJECT_NAME":"STARLINK-4649","RCS_SIZE":"LARGE","ELEMENT_SET_NO":"999","INCLINATION":"53.2179","TIME_SYSTEM":"UTC","REV_AT_EPOCH":"3795","MEAN_MOTION_DOT":"0.00000846","OBJECT_ID":"2022-114P","MEAN_ANOMALY":"282.6348","PERIAPSIS":"539.058","DECAY_DATE":null,"CLASSIFICATION_TYPE":"U","MEAN_MOTION_DDOT":"0.0000000000000","CENTER_NAME":"EARTH","BSTAR":"0.00007123500000","REF_FRAME":"TEME","FILE":"3911388","MEAN_MOTION":"15.08832559","NORAD_CAT_ID":"53831","EPOCH":"2023-05-18T18:38:49.575552","ECCENTRICITY":"0.00010260","COUNTRY_CODE":"US","APOAPSIS":"540.478","ARG_OF_PERICENTER":"77.4759","LAUNCH_DATE":"2022-09-19","TLE_LINE1":"1 53831U 22114P   23138.77696268  .00000846  00000-0  71235-4 0  9998","TLE_LINE2":"2 53831  53.2179 229.6040 0001026  77.4759 282.6348 15.08832559 37953","MEAN_ELEMENT_THEORY":"SGP4","GP_ID":"232115672","PERIOD":"95.438","RA_OF_ASC_NODE":"229.6040","SITE":"AFETR","EPHEMERIS_TYPE":"0"},{"OBJECT_TYPE":"PAYLOAD","SEMIMAJOR_AXIS":"6917.904","OBJECT_NAME":"STARLINK-4747","RCS_SIZE":"LARGE","ELEMENT_SET_NO":"999","INCLINATION":"53.2151","TIME_SYSTEM":"UTC","REV_AT_EPOCH":"3791","MEAN_MOTION_DOT":"0.00000220","MEAN_ANOMALY":"273.5296","OBJECT_ID":"2022-114Q","PERIAPSIS":"539.244","DECAY_DATE":null,"MEAN_MOTION_DDOT":"0.0000000000000","CLASSIFICATION_TYPE":"U","CENTER_NAME":"EARTH","REF_FRAME":"TEME","BSTAR":"0.00003187200000","FILE":"3911221","MEAN_MOTION":"15.08832118","NORAD_CAT_ID":"53832","EPOCH":"2023-05-18T11:45:26.786304","ECCENTRICITY":"0.00007600","COUNTRY_CODE":"US","APOAPSIS":"540.295","ARG_OF_PERICENTER":"86.5783","LAUNCH_DATE":"2022-09-19","TLE_LINE1":"1 53832U 22114Q   23138.48989336  .00000220  00000-0  31872-4 0  9997","TLE_LINE2":"2 53832  53.2151 230.6606 0000760  86.5783 273.5296 15.08832118 37914","MEAN_ELEMENT_THEORY":"SGP4","GP_ID":"232085195","PERIOD":"95.438","RA_OF_ASC_NODE":"230.6606","SITE":"AFETR","EPHEMERIS_TYPE":"0"},{"LAUNCH_DATE":"2022-09-19","APOAPSIS":"540.474","ARG_OF_PERICENTER":"75.6009","PERIOD":"95.438","RA_OF_ASC_NODE":"230.1314","SITE":"AFETR","EPHEMERIS_TYPE":"0","TLE_LINE1":"1 53833U 22114R   23138.63342509  .00000487  00000-0  48702-4 0  9995","TLE_LINE2":"2 53833  53.2175 230.1314 0001033  75.6009 284.5097 15.08835411 37938","MEAN_ELEMENT_THEORY":"SGP4","GP_ID":"232116674","MEAN_MOTION_DDOT":"0.0000000000000","CLASSIFICATION_TYPE":"U","CENTER_NAME":"EARTH","REF_FRAME":"TEME","BSTAR":"0.00004870200000","PERIAPSIS":"539.045","DECAY_DATE":null,"COUNTRY_CODE":"US","ECCENTRICITY":"0.00010330","FILE":"3911388","MEAN_MOTION":"15.08835411","NORAD_CAT_ID":"53833","EPOCH":"2023-05-18T15:12:07.927776","REV_AT_EPOCH":"3793","MEAN_MOTION_DOT":"0.00000487","MEAN_ANOMALY":"284.5097","OBJECT_ID":"2022-114R","RCS_SIZE":"LARGE","OBJECT_TYPE":"PAYLOAD","SEMIMAJOR_AXIS":"6917.894","OBJECT_NAME":"STARLINK-4771","ELEMENT_SET_NO":"999","INCLINATION":"53.2175","TIME_SYSTEM":"UTC"}];
